start=new Date('2023-06-09T00:00:00.000Z').valueOf();
sats=[{"COUNTRY_CODE":"US","ELEMENT_SET_NO":"999","OBJECT_ID":"2022-041AH","CLASSIFICATION_TYPE":"U","PERIAPSIS":"539.128","APOAPSIS":"540.372","TIME_SYSTEM":"UTC","TLE_LINE2":"2 52292  53.2173 291.0427 0000899  81.8836 278.2258 15.08838604 63992","REV_AT_EPOCH":"6399","PERIOD":"95.438","MEAN_ANOMALY":"278.2258","MEAN_MOTION":"15.08838604","RCS_SIZE":"LARGE","FILE":"3928094","MEAN_MOTION_DDOT":"0.0000000000000","REF_FRAME":"TEME","SITE":"AFETR","EPOCH":"2023-06-08T14:56:50.067744","BSTAR":"0.00013271000000","GP_ID":"233478625","SEMIMAJOR_AXIS":"6917.885","CENTER_NAME":"EARTH","EPHEMERIS_TYPE":"0","OBJECT_TYPE":"PAYLOAD","ECCENTRICITY":"0.00008990","DECAY_DATE":null,"LAUNCH_DATE":"2022-04-21","TLE_LINE1":"1 52292U 22041AH  23159.62280171  .00001825  00000-0  13271-3 0  9999","MEAN_MOTION_DOT":"0.00001825","OBJECT_NAME":"STARLINK-3753","INCLINATION":"53.2173","MEAN_ELEMENT_THEORY":"SGP4","NORAD_CAT_ID":"52292","RA_OF_ASC_NODE":"291.0427","ARG_OF_PERICENTER":"81.8836"},{"ARG_OF_PERICENTER":"81.0260","MEAN_ELEMENT_THEORY":"SGP4","RA_OF_ASC_NODE":"290.9980","NORAD_CAT_ID":"52293","MEAN_MOTION_DOT":"0.00001081","TLE_LINE1":"1 52293U 22041AJ  23159.63479543  .00001081  00000-0  85973-4 0  9997","LAUNCH_DATE":"2022-04-21","INCLINATION":"53.2149","OBJECT_NAME":"STARLINK-3771","OBJECT_TYPE":"PAYLOAD","DECAY_DATE":null,"ECCENTRICITY":"0.00010880","SEMIMAJOR_AXIS":"6917.876","EPHEMERIS_TYPE":"0","CENTER_NAME":"EARTH","BSTAR":"0.00008597300000","EPOCH":"2023-06-08T15:14:06.325152","SITE":"AFETR","GP_ID":"233504542","RCS_SIZE":"LARGE","MEAN_MOTION":"15.08841518","MEAN_ANOMALY":"279.0855","REF_FRAME":"TEME","FILE":"3928201","MEAN_MOTION_DDOT":"0.0000000000000","APOAPSIS":"540.493","PERIAPSIS":"538.988","CLASSIFICATION_TYPE":"U","ELEMENT_SET_NO":"999","OBJECT_ID":"2022-041AJ","COUNTRY_CODE":"US","TLE_LINE2":"2 52293  53.2149 290.9980 0001088  81.0260 279.0855 15.08841518 62777","PERIOD":"95.437","REV_AT_EPOCH":"6277","TIME_SYSTEM":"UTC"},{"DECAY_DATE":null,"ECCENTRICITY":"0.00007870","OBJECT_TYPE":"PAYLOAD","OBJECT_NAME":"STARLINK-3777","INCLINATION":"53.2178","TLE_LINE1":"1 52294U 22041AK  23159.55288240  .00002455  00000-0  17229-3 0  9995","LAUNCH_DATE":"2022-04-21","MEAN_MOTION_DOT":"0.00002455","NORAD_CAT_ID":"52294","RA_OF_ASC_NODE":"291.3553","MEAN_ELEMENT_THEORY":"SGP4","ARG_OF_PERICENTER":"99.1627","TIME_SYSTEM":"UTC","REV_AT_EPOCH":"6276","TLE_LINE2":"2 52294  53.2178 291.3553 0000787  99.1627 260.9454 15.08837212 62762","PERIOD":"95.438","COUNTRY_CODE":"US","ELEMENT_SET_NO":"999","OBJECT_ID":"2022-041AK","CLASSIFICATION_TYPE":"U","APOAPSIS":"540.298","PERIAPSIS":"539.209","FILE":"3928201","MEAN_MOTION_DDOT":"0.0000000000000","REF_FRAME":"TEME","MEAN_ANOMALY":"260.9454","MEAN_MOTION":"15.08837212","RCS_SIZE":"MEDIUM","GP_ID":"233504791","SITE":"AFETR","EPOCH":"2023-06-08T13:16:09.039360","BSTAR":"0.00017229000000","CENTER_NAME":"EARTH","EPHEMERIS_TYPE":"0","SEMIMAJOR_AXIS":"6917.889"},{"MEAN_ELEMENT_THEORY":"SGP4","RA_OF_ASC_NODE":"291.0088","NORAD_CAT_ID":"52295","ARG_OF_PERICENTER":"77.3610","OBJECT_TYPE":"PAYLOAD","ECCENTRICITY":"0.00010030","DECAY_DATE":null,"MEAN_MOTION_DOT":"0.00001308","TLE_LINE1":"1 52295U 22041AL  23159.63015679  .00001308  00000-0  10022-3 0  9999","LAUNCH_DATE":"2022-04-21","INCLINATION":"53.2172","OBJECT_NAME":"STARLINK-3765","BSTAR":"0.00010022000000","SITE":"AFETR","EPOCH":"2023-06-08T15:07:25.546656","GP_ID":"233503541","SEMIMAJOR_AXIS":"6917.860","EPHEMERIS_TYPE":"0","CENTER_NAME":"EARTH","CLASSIFICATION_TYPE":"U","PERIAPSIS":"539.031","APOAPSIS":"540.419","COUNTRY_CODE":"US","OBJECT_ID":"2022-041AL","ELEMENT_SET_NO":"999","TLE_LINE2":"2 52295  53.2172 291.0088 0001003  77.3610 282.7495 15.08846640 62772","PERIOD":"95.437","REV_AT_EPOCH":"6277","TIME_SYSTEM":"UTC","RCS_SIZE":"LARGE","MEAN_ANOMALY":"282.7495","MEAN_MOTION":"15.08846640","FILE":"3928201","MEAN_MOTION_DDOT":"0.0000000000000","REF_FRAME":"TEME"},{"TLE_LINE1":"1 52296U 22041AM  23159.54184322  .00000408  00000-0  43734-4 0  9999","LAUNCH_DATE":"2022-04-21","MEAN_MOTION_DOT":"0.00000408","OBJECT_NAME":"STARLINK-3766","INCLINATION":"53.2170","OBJECT_TYPE":"PAYLOAD","ECCENTRICITY":"0.00011110","DECAY_DATE":null,"ARG_OF_PERICENTER":"92.4735","MEAN_ELEMENT_THEORY":"SGP4","NORAD_CAT_ID":"52296","RA_OF_ASC_NODE":"291.4020","MEAN_MOTION":"15.08836887","MEAN_ANOMALY":"267.6385","RCS_SIZE":"LARGE","REF_FRAME":"TEME","MEAN_MOTION_DDOT":"0.0000000000000","FILE":"3928103","OBJECT_ID":"2022-041AM","ELEMENT_SET_NO":"999","COUNTRY_CODE":"US","APOAPSIS":"540.523","PERIAPSIS":"538.986","CLASSIFICATION_TYPE":"U","TIME_SYSTEM":"UTC","PERIOD":"95.438","TLE_LINE2":"2 52296  53.2170 291.4020 0001111  92.4735 267.6385 15.08836887 63983","REV_AT_EPOCH":"6398","SEMIMAJOR_AXIS":"6917.890","CENTER_NAME":"EARTH","EPHEMERIS_TYPE":"0","EPOCH":"2023-06-08T13:00:15.254208","SITE":"AFETR","BSTAR":"0.00004373400000","GP_ID":"233478955"},{"ARG_OF_PERICENTER":"80.3533","MEAN_ELEMENT_THEORY":"SGP4","NORAD_CAT_ID":"52297","RA_OF_ASC_NODE":"291.0251","TLE_LINE1":"1 52297U 22041AN  23159.62648184  .00007365  00000-0  48032-3 0  9994","LAUNCH_DATE":"2022-04-21","MEAN_MOTION_DOT":"0.00007365","OBJECT_NAME":"STARLINK-3758","INCLINATION":"53.2163","OBJECT_TYPE":"PAYLOAD","DECAY_DATE":null,"ECCENTRICITY":"0.00007930","SEMIMAJOR_AXIS":"6917.879","CENTER_NAME":"EARTH","EPHEMERIS_TYPE":"0","SITE":"AFETR","EPOCH":"2023-06-08T15:02:08.030976","BSTAR":"0.00048032000000","GP_ID":"233505043","MEAN_ANOMALY":"279.7549","MEAN_MOTION":"15.08840341","RCS_SIZE":"LARGE","FILE":"3928201","MEAN_MOTION_DDOT":"0.0000000000000","REF_FRAME":"TEME","COUNTRY_CODE":"US","ELEMENT_SET_NO":"999","OBJECT_ID":"2022-041AN","CLASSIFICATION_TYPE":"U","APOAPSIS":"540.293","PERIAPSIS":"539.196","TIME_SYSTEM":"UTC","REV_AT_EPOCH":"6277","TLE_LINE2":"2 52297  53.2163 291.0251 0000793  80.3533 279.7549 15.08840341 62777","PERIOD":"95.438"},{"RA_OF_ASC_NODE":"291.4257","NORAD_CAT_ID":"52298","MEAN_ELEMENT_THEORY":"SGP4","ARG_OF_PERICENTER":"96.9791","ECCENTRICITY":"0.00010850","DECAY_DATE":null,"OBJECT_TYPE":"PAYLOAD","INCLINATION":"53.2179","OBJECT_NAME":"STARLINK-3760","MEAN_MOTION_DOT":"0.00000777","LAUNCH_DATE":"2022-04-21","TLE_LINE1":"1 52298U 22041AP  23159.53912001  .00000777  00000-0  66895-4 0  9995","GP_ID":"233472633","BSTAR":"0.00006689500000","EPOCH":"2023-06-08T12:56:19.968864","SITE":"AFETR","EPHEMERIS_TYPE":"0","CENTER_NAME":"EARTH","SEMIMAJOR_AXIS":"6917.890","REV_AT_EPOCH":"6276","TLE_LINE2":"2 52298  53.2179 291.4257 0001085  96.9791 263.1324 15.08836989 62769","PERIOD":"95.438","TIME_SYSTEM":"UTC","PERIAPSIS":"539.004","APOAPSIS":"540.505","CLASSIFICATION_TYPE":"U","OBJECT_ID":"2022-041AP","ELEMENT_SET_NO":"999","COUNTRY_CODE":"US","REF_FRAME":"TEME","MEAN_MOTION_DDOT":"0.0000000000000","FILE":"3928007","RCS_SIZE":"LARGE","MEAN_MOTION":"15.08836989","MEAN_ANOMALY":"263.1324"},{"ARG_OF_PERICENTER":"75.4374","MEAN_ELEMENT_THEORY":"SGP4","NORAD_CAT_ID":"52299","RA_OF_ASC_NODE":"291.3863","LAUNCH_DATE":"2022-04-21","TLE_LINE1":"1 52299U 22041AQ  23159.54552283  .00000989  00000-0  80214-4 0  9995","MEAN_MOTION_DOT":"0.00000989","OBJECT_NAME":"STARLINK-3759","INCLINATION":"53.2175","OBJECT_TYPE":"PAYLOAD","ECCENTRICITY":"0.00010430","DECAY_DATE":null,"SEMIMAJOR_AXIS":"6917.892","CENTER_NAME":"EARTH","EPHEMERIS_TYPE":"0","EPOCH":"2023-06-08T13:05:33.172512","SITE":"AFETR","BSTAR":"0.00008021400000","GP_ID":"233504042","MEAN_MOTION":"15.08836088","MEAN_ANOMALY":"284.6734","RCS_SIZE":"LARGE","REF_FRAME":"TEME","FILE":"3928201","MEAN_MOTION_DDOT":"0.0000000000000","ELEMENT_SET_NO":"999","OBJECT_ID":"2022-041AQ","COUNTRY_CODE":"US","APOAPSIS":"540.479","PERIAPSIS":"539.036","CLASSIFICATION_TYPE":"U","TIME_SYSTEM":"UTC","TLE_LINE2":"2 52299  53.2175 291.3863 0001043  75.4374 284.6734 15.08836088 62764","REV_AT_EPOCH":"6276","PERIOD":"95.438"},{"MEAN_ELEMENT_THEORY":"SGP4","RA_OF_ASC_NODE":"290.8602","NORAD_CAT_ID":"52300","ARG_OF_PERICENTER":"83.4555","OBJECT_TYPE":"PAYLOAD","ECCENTRICITY":"0.00009430","DECAY_DATE":null,"MEAN_MOTION_DOT":"0.00001005","LAUNCH_DATE":"2022-04-21","TLE_LINE1":"1 52300U 22041AR  23159.66327722  .00001005  00000-0  81230-4 0  9998","INCLINATION":"53.2178","OBJECT_NAME":"STARLINK-3769","BSTAR":"0.00008123000000","SITE":"AFETR","EPOCH":"2023-06-08T15:55:07.151808","GP_ID":"233504292","SEMIMAJOR_AXIS":"6917.883","EPHEMERIS_TYPE":"0","CENTER_NAME":"EARTH","CLASSIFICATION_TYPE":"U","PERIAPSIS":"539.095","APOAPSIS":"540.400","COUNTRY_CODE":"US","OBJECT_ID":"2022-041AR","ELEMENT_SET_NO":"999","TLE_LINE2":"2 52300  53.2178 290.8602 0000943  83.4555 276.6544 15.08839246 64001","REV_AT_EPOCH":"6400","PERIOD":"95.438","TIME_SYSTEM":"UTC","RCS_SIZE":"LARGE","MEAN_ANOMALY":"276.6544","MEAN_MOTION":"15.08839246","FILE":"3928201","MEAN_MOTION_DDOT":"0.0000000000000","REF_FRAME":"TEME"},{"ARG_OF_PERICENTER":"96.0359","MEAN_ELEMENT_THEORY":"SGP4","NORAD_CAT_ID":"52301","RA_OF_ASC_NODE":"291.3705","LAUNCH_DATE":"2022-04-21","TLE_LINE1":"1 52301U 22041AS  23159.54920275  .00002432  00000-0  17081-3 0  9995","MEAN_MOTION_DOT":"0.00002432","OBJECT_NAME":"STARLINK-3768","INCLINATION":"53.2170","OBJECT_TYPE":"PAYLOAD","DECAY_DATE":null,"ECCENTRICITY":"0.00009850","SEMIMAJOR_AXIS":"6917.889","CENTER_NAME":"EARTH","EPHEMERIS_TYPE":"0","EPOCH":"2023-06-08T13:10:51.117600","SITE":"AFETR","BSTAR":"0.00017081000000","GP_ID":"233504543","MEAN_MOTION":"15.08837287","MEAN_ANOMALY":"264.0746","RCS_SIZE":"LARGE","REF_FRAME":"TEME","MEAN_MOTION_DDOT":"0.0000000000000","FILE":"3928201","ELEMENT_SET_NO":"999","OBJECT_ID":"2022-041AS","COUNTRY_CODE":"US","PERIAPSIS":"539.072","APOAPSIS":"540.435","CLASSIFICATION_TYPE":"U","TIME_SYSTEM":"UTC","PERIOD":"95.438","TLE_LINE2":"2 52301  53.2170 291.3705 0000985  96.0359 264.0746 15.08837287 62761","REV_AT_EPOCH":"6276"}];
